FLOCK 4Q-13             
1 58328U 23174CA  26117.20251734  .00028159  00000+0  51237-3 0  9999
2 58328  97.3997 206.6171 0005211 344.3143  15.7946 15.49465967137779
FLOCK 4BE-18            
1 60480U 24149N   26116.78220157  .00023270  00000+0  58054-3 0  9994
2 60480  97.3729 200.0410 0005022  92.3220 267.8601 15.40184890 94396
FLOCK 4BE-7             
1 60481U 24149P   26117.18591167  .00028029  00000+0  74497-3 0  9998
2 60481  97.3764 199.9044 0004191  96.6265 263.5457 15.38208812 94409
FLOCK 4BE-26            
1 60484U 24149S   26117.18119915  .00177078  00000+0  25398-2 0  9992
2 60484  97.3685 201.1251 0002711 143.1035 217.0406 15.55522524 94506
FLOCK 4BE-36            
1 60486U 24149U   26116.78324761  .00021694  00000+0  52562-3 0  9992
2 60486  97.3743 200.6617 0005134 100.3400 259.8425 15.41088388 94433
FLOCK 4BE-25            
1 60487U 24149V   26117.21442907  .00018036  00000+0  49195-3 0  9999
2 60487  97.3800 200.0723 0003690  96.6365 263.5300 15.37497713 94404
FLOCK 4BE-31            
1 60488U 24149W   26116.78881905  .00025354  00000+0  59308-3 0  9994
2 60488  97.3800 201.3927 0004049 104.0292 256.1406 15.42123519 94453
FLOCK 4BE-20            
1 60489U 24149X   26117.21712838  .00017950  00000+0  50206-3 0  9993
2 60489  97.3703 199.0836 0005256  97.4528 262.7313 15.36710976 94380
FLOCK 4BE-23            
1 60490U 24149Y   26117.19521613  .00015632  00000+0  44289-3 0  9990
2 60490  97.3781 199.4093 0005098 103.7132 256.4680 15.36339639 94361
FLOCK 4BE-15            
1 60491U 24149Z   26117.22945604  .00127600  00000+0  23230-2 0  9996
2 60491  97.3715 201.1214 0005522 170.9881 189.1470 15.49016156 94510
FLOCK 4BE-17            
1 60492U 24149AA  26117.18096124  .00020952  00000+0  55660-3 0  9991
2 60492  97.3778 200.2073 0004433  96.1448 264.0302 15.38282318 94410
FLOCK 4BE-22            
1 60494U 24149AC  26117.20728805  .00021026  00000+0  53506-3 0  9994
2 60494  97.3735 200.3482 0005047 101.1169 259.0644 15.39600363 94451
FLOCK 4BE-34            
1 60495U 24149AD  26117.22542054  .00020613  00000+0  52337-3 0  9999
2 60495  97.3782 201.1544 0005361 108.1952 251.9878 15.39672018 94487
FLOCK 4BE-32            
1 60497U 24149AF  26117.22251210  .00021154  00000+0  52409-3 0  9993
2 60497  97.3722 200.6690 0005278 106.0049 254.1779 15.40415940 94486
FLOCK 4BE-30            
1 60499U 24149AH  26117.21554485  .00109539  00000+0  22210-2 0  9994
2 60499  97.3792 201.4700 0003555 166.6585 193.4759 15.45971962 93870
FLOCK 4BE-11            
1 60501U 24149AK  26116.79055813  .00021713  00000+0  52329-3 0  9993
2 60501  97.3701 200.4120 0005357 107.0111 253.1723 15.41247680 94432
